#cV2025  3  2  0  0  0.00000000    5040 SLR   ECF   FIT JCET
## 2356   18.000000         120.000000 60736   0.0000000    
+    1   L51  0  0  0  0  0  0  0  0  0  0  0  0  0  0  0  0
+          0  0  0  0  0  0  0  0  0  0  0  0  0  0  0  0  0
+          0  0  0  0  0  0  0  0  0  0  0  0  0  0  0  0  0
+          0  0  0  0  0  0  0  0  0  0  0  0  0  0  0  0  0
+          0  0  0  0  0  0  0  0  0  0  0  0  0  0  0  0  0
++       000000000000000000000000000000000000000000000000000
++       000000000000000000000000000000000000000000000000000
++       000000000000000000000000000000000000000000000000000
++       000000000000000000000000000000000000000000000000000
++       000000000000000000000000000000000000000000000000000
%c L  cc UTC ccc cccc cccc cccc cccc ccccc ccccc ccccc ccccc
%c cc cc ccc ccc cccc cccc cccc cccc ccccc ccccc ccccc ccccc
%f  0.0000000  0.000000000  0.00000000000  0.000000000000000
%f  0.0000000  0.000000000  0.00000000000  0.000000000000000
%i    0    0    0    0      0      0      0      0         0
%i    0    0    0    0      0      0      0      0         0
/* CCCCCCCCCCCCCCCCCCCCCCCCCCCCCCCCCCCCCCCCCCCCCCCCCCCCCCCCC
/*  ECF (IERS/ITRF) orbital product from JCET ILRS AC       
/* jcet.pos+eop.250308.v80.snx.gz                           
/* CCCCCCCCCCCCCCCCCCCCCCCCCCCCCCCCCCCCCCCCCCCCCCCCCCCCCCCCC
*  2025  3  3 15 52   0.00000000                            
PL51  10459.298139  -1731.067786  -6160.104626              
VL51  20849.982521 -34007.218698  45484.543873              
*  2025  3  3 15 54   0.00000000                            
PL51  10689.922814  -2138.394005  -5604.975421              
VL51  17577.781587 -33853.676950  47013.173825              
*  2025  3  3 15 56   0.00000000                            
PL51  10880.958045  -2542.911639  -5032.369854              
VL51  14253.874115 -33539.060095  48396.468262              
*  2025  3  3 15 58   0.00000000                            
PL51  11031.860488  -2942.687033  -4444.059949              
VL51  10891.145285 -33063.363292  49629.836145              
*  2025  3  3 16  0   0.00000000                            
PL51  11142.242374  -3335.790835  -3841.870074              
VL51   7502.630281 -32427.309371  50709.147664              
*  2025  3  3 16  2   0.00000000                            
PL51  11211.872992  -3720.306747  -3227.671300              
VL51   4101.461196 -31632.351582  51630.751314              
*  2025  3  3 16  4   0.00000000                            
PL51  11240.679528  -4094.340294  -2603.375570              
VL51    700.813042 -30680.672944  52391.489466              
*  2025  3  3 16  6   0.00000000                            
PL51  11228.747252  -4456.027554  -1970.929681              
VL51  -2686.150922 -29575.182126  52988.712346              
*  2025  3  3 16  8   0.00000000                            
PL51  11176.319045  -4803.543828  -1332.309121              
VL51  -6046.334247 -28319.505814  53420.290290              
*  2025  3  3 16 10   0.00000000                            
PL51  11083.794274  -5135.112193   -689.511759              
VL51  -9366.762475 -26917.977554  53684.624177              
*  2025  3  3 16 12   0.00000000                            
PL51  10951.726988  -5449.011894    -44.551427              
VL51 -12634.638168 -25375.623072  53780.653959              
*  2025  3  3 16 14   0.00000000                            
PL51  10780.823470  -5743.586552    600.548592              
VL51 -15837.395464 -23698.142105  53707.865186              
*  2025  3  3 16 16   0.00000000                            
PL51  10571.939138  -6017.252122   1243.762136              
VL51 -18962.753889 -21891.886787  53466.293469              
*  2025  3  3 16 18   0.00000000                            
PL51  10326.074795  -6268.504574   1883.066785              
VL51 -21998.771109 -19963.836683  53056.526817              
*  2025  3  3 16 20   0.00000000                            
PL51  10044.372267  -6495.927260   2516.450492              
VL51 -24933.894324 -17921.570562  52479.705812              
*  2025  3  3 16 22   0.00000000                            
PL51   9728.109427  -6698.197915   3141.918203              
VL51 -27757.010018 -15773.235048  51737.521589              
*  2025  3  3 16 24   0.00000000                            
PL51   9378.694634  -6874.095274   3757.498440              
VL51 -30457.491773 -13527.510305  50832.211626              
*  2025  3  3 16 26   0.00000000                            
PL51   8997.660613  -7022.505247   4361.249822              
VL51 -33025.245881 -11193.572905  49766.553337              
*  2025  3  3 16 28   0.00000000                            
PL51   8586.657799  -7142.426646   4951.267496              
VL51 -35450.754490  -8781.056107  48543.855502              
*  2025  3  3 16 30   0.00000000                            
PL51   8147.447182  -7232.976413   5525.689450              
VL51 -37725.116062  -6300.007717  47167.947570              
*  2025  3  3 16 32   0.00000000                            
PL51   7681.892686  -7293.394329   6082.702685              
VL51 -39840.082891  -3760.845783  45643.166877              
*  2025  3  3 16 34   0.00000000                            
PL51   7191.953108  -7323.047183   6620.549227              
VL51 -41788.095509  -1174.312346  43974.343852              
*  2025  3  3 16 36   0.00000000                            
PL51   6679.673673  -7321.432375   7137.531939              
VL51 -43562.313779   1448.574499  42166.785283              
*  2025  3  3 16 38   0.00000000                            
PL51   6147.177232  -7288.180931   7632.020136              
VL51 -45156.644523   4096.569966  40226.255733              
*  2025  3  3 16 40   0.00000000                            
PL51   5596.655151  -7223.059922   8102.454950              
VL51 -46565.765548   6758.253115  38158.957204              
*  2025  3  3 16 42   0.00000000                            
PL51   5030.357931  -7125.974272   8547.354455              
VL51 -47785.145967   9422.078264  35971.507165              
*  2025  3  3 16 44   0.00000000                            
PL51   4450.585614  -6996.967939   8965.318509              
VL51 -48811.062721  12076.427033  33670.915048              
*  2025  3  3 16 46   0.00000000                            
PL51   3859.678004  -6836.224480   9355.033313              
VL51 -49640.613262  14709.660719  31264.557353              
*  2025  3  3 16 48   0.00000000                            
PL51   3260.004768  -6644.066972   9715.275656              
VL51 -50271.724339  17310.172753  28760.151482              
*  2025  3  3 16 50   0.00000000                            
PL51   2653.955449  -6420.957320  10044.916846              
VL51 -50703.156901  19866.440957  26165.728430              
*  2025  3  3 16 52   0.00000000                            
PL51   2043.929446  -6167.494926  10342.926304              
VL51 -50934.507126  22367.079341  23489.604480              
*  2025  3  3 16 54   0.00000000                            
PL51   1432.326006  -5884.414753  10608.374814              
VL51 -50966.203604  24800.889201  20740.352042              
*  2025  3  3 16 56   0.00000000                            
PL51    821.534269  -5572.584774  10840.437412              
VL51 -50799.500752  27156.909256  17926.769753              
*  2025  3  3 16 58   0.00000000                            
PL51    213.923416  -5233.002826  11038.395928              
VL51 -50436.468526  29424.464603  15057.851995              
*  2025  3  3 17  0   0.00000000                            
PL51   -388.167037  -4866.792888  11201.641141              
VL51 -49879.978550  31593.214270  12142.757952              
*  2025  3  3 17  2   0.00000000                            
PL51   -982.436757  -4475.200799  11329.674575              
VL51 -49133.686749  33653.197151   9190.780324              
*  2025  3  3 17  4   0.00000000                            
PL51  -1566.633887  -4059.589426  11422.109908              
VL51 -48202.012642  35594.876138   6211.313839              
*  2025  3  3 17  6   0.00000000                            
PL51  -2138.564069  -3621.433330  11478.674010              
VL51 -47090.115419  37409.180255   3213.823654              
*  2025  3  3 17  8   0.00000000                            
PL51  -2696.099157  -3162.312923  11499.207599              
VL51 -45803.866949  39087.544626    207.813785              
*  2025  3  3 17 10   0.00000000                            
PL51  -3237.185599  -2683.908171  11483.665514              
VL51 -44349.821906  40621.948119  -2797.204348              
*  2025  3  3 17 12   0.00000000                            
PL51  -3759.852430  -2187.991854  11432.116622              
VL51 -42735.185142  42004.948503  -5791.743138              
*  2025  3  3 17 14   0.00000000                            
PL51  -4262.218874  -1676.422420  11344.743342              
VL51 -40967.776527  43229.715005  -8766.369681              
*  2025  3  3 17 16   0.00000000                            
PL51  -4742.501493  -1151.136468  11221.840808              
VL51 -39055.993413  44290.058116 -11711.736223              
*  2025  3  3 17 18   0.00000000                            
PL51  -5199.020888   -614.140888  11063.815665              
VL51 -37008.770936  45180.456555 -14618.610084              
*  2025  3  3 17 20   0.00000000                            
PL51  -5630.207899    -67.504693  10871.184515              
VL51 -34835.540337  45896.081293 -17477.902952              
*  2025  3  3 17 22   0.00000000                            
PL51  -6034.609301    486.649415  10644.572009              
VL51 -32546.185530  46432.816546 -20280.699469              
EOF                                                         
